SBSS (USA 216)          
1 37168U 10048A   26068.88624904  .00004946  00000+0  24191-3 0  9993
2 37168  97.7474 312.3885 0082264 184.8326 306.5835 15.15724210837421
STARLINK-31823          
1 59794U 24093N   26067.69377638  .00000298  00000+0  20373-4 0  9999
2 59794  42.9987 214.4702 0002017 273.8979  86.1642 15.27589278102543
